ELEKTRO-L 3             
1 44903U 19095A   26161.49758782 -.00000079  00000+0  00000+0 0  9995
2 44903   0.2384  81.3236 0001317 353.8837  78.7365  1.00272200 23646
GONETS-M 14             
1 44905U 19096A   26161.52782576  .00000105  00000+0  68436-3 0  9990
2 44905  82.5228  88.7684 0013224 162.2522 197.9022 12.42870054292853
GONETS-M 15             
1 44906U 19096B   26161.55723251  .00000080  00000+0  50797-3 0  9992
2 44906  82.5247  89.2106 0014604 186.2267 173.8634 12.42871499292828
GONETS-M 16             
1 44907U 19096C   26161.50306412  .00000055  00000+0  32606-3 0  9995
2 44907  82.5193  88.1998 0009677 230.6869 129.3353 12.42891780292809
RS-44 & BREEZE-KM R/B   
1 44909U 19096E   26161.51612502  .00000034  00000+0  85775-4 0  9991
2 44909  82.5217 344.1388 0217871 159.7203 201.2721 12.79748702301496
JILIN-1 KUANFU 01       
1 45016U 20003A   26161.46323167  .00002395  00000+0  14839-3 0  9995
2 45016  97.5031 235.5497 0008778 334.3068  25.7725 15.10688491354312
XINGYUN-2 01            
1 45602U 20028A   26161.52316959  .00003137  00000+0  18749-3 0  9990
2 45602  97.4866 154.0560 0007841 219.3787 140.6874 15.11781433333831
XINGYUN-2 02            
1 45603U 20028B   26161.56681303  .00002072  00000+0  12601-3 0  9991
2 45603  97.5071 167.6747 0009556 300.2943  59.7341 15.11509976333836
HAIYANG-1D              
1 45721U 20036A   26161.48479521 -.00000045  00000+0 -65429-6 0  9998
2 45721  98.4550 103.3099 0003004 143.6042 216.5347 14.34170680314015
M2 PATHFINDER           
1 45727U 20037E   26161.26369985  .00002197  00000+0  16065-3 0  9990
2 45727  97.8160 352.4179 0011852 168.8830 191.2660 15.04648075324453
GAOFEN DUOMO (GFDM)     
1 45856U 20042A   26161.50000925  .00000429  00000+0  67918-4 0  9992
2 45856  97.7749 221.6293 0012476  93.6586 266.6051 14.76870708320026
ZIYUAN 3-03 (ZY 3-03)   
1 45939U 20051A   26161.54157752  .00004445  00000+0  20063-3 0  9990
2 45939  97.2836 229.4823 0003864 349.6367  10.4788 15.21479686326330
NEMO-HD                 
1 46277U 20061F   26161.52147462  .00010373  00000+0  22590-3 0  9996
2 46277  97.1927 223.5419 0002499  88.1719 271.9816 15.44460404320952
NAPA-1                  
1 46320U 20061BA  26161.52374755  .00065423  00000+0  61084-3 0  9999
2 46320  97.2470 235.4887 0001263 163.5298 196.6004 15.67107351320691
JILIN-1 GAOFEN 3E       
1 46457U 20065D   26161.50070955  .00055643  00000+0  61376-3 0  9994
2 46457  97.2260 213.9587 0012461 178.0126 182.1184 15.62830884318718
JILIN-1 GAOFEN 3F       
1 46458U 20065E   26161.45012162  .00049178  00000+0  59972-3 0  9990
2 46458  97.2215 211.2739 0014118 167.5752 192.5856 15.60219787318653
JILIN-1 GAOFEN 3G       
1 46459U 20065F   26161.45814613  .00081817  00000+0  67544-3 0  9992
2 46459  97.2287 217.9763 0009735  86.7652 273.4724 15.70012114318887
JILIN-1 GAOFEN 3H       
1 46460U 20065G   26161.47932787  .00064841  00000+0  61245-3 0  9999
2 46460  97.2226 214.3658 0004591  27.2837 332.8664 15.66810447318834
HAIYANG-2C              
1 46469U 20066A   26161.51467009 -.00000228  00000+0 -13294-3 0  9996
2 46469  65.9969 231.8969 0009174 238.3426 121.6748 13.83373945288577
HJ-2A                   
1 46478U 20067A   26160.03299753  .00000302  00000+0  50437-4 0  9994
2 46478  97.8822 238.5982 0002212 312.3940  47.7082 14.76600903307052
HJ-2B                   
1 46479U 20067B   26161.49321293  .00000168  00000+0  31200-4 0  9998
2 46479  97.8887 241.0400 0001170  94.8195 265.3149 14.76548677307279
GONETS-M 17             
1 46486U 20068A   26161.52810347 -.00000014  00000+0 -17380-3 0  9998
2 46486  82.4996 351.6465 0023306  51.3490 308.9670 12.42872767258334
GONETS-M 18             
1 46487U 20068B   26161.57225866  .00000037  00000+0  19657-3 0  9992
2 46487  82.4950 350.7394 0020557  48.0479 312.2349 12.42873013258326
GONETS-M 19             
1 46488U 20068C   26161.54777046 -.00000046  00000+0 -40540-3 0  9999
2 46488  82.4974 351.2038 0014425  62.9703 297.2847 12.42891663258423
DEKART                  
1 46493U 20068H   26161.50235118  .00011724  00000+0  32395-3 0  9992
2 46493  97.8743 170.2941 0007339 316.1957  43.8703 15.37199084314745
NORBI                   
1 46494U 20068J   26161.56498777  .00019342  00000+0  36928-3 0  9991
2 46494  97.8631 176.9473 0004478 278.5358  81.5384 15.48174907315184
SALSAT                  
1 46495U 20068K   26161.27729316  .00007605  00000+0  26695-3 0  9995
2 46495  97.8853 163.9217 0008649 336.5873  23.4971 15.29700288314300
