OBJECT_NAME,OBJECT_ID,EPOCH,MEAN_MOTION,ECCENTRICITY,INCLINATION,RA_OF_ASC_NODE,ARG_OF_PERICENTER,MEAN_ANOMALY,EPHEMERIS_TYPE,CLASSIFICATION_TYPE,NORAD_CAT_ID,ELEMENT_SET_NO,REV_AT_EPOCH,BSTAR,MEAN_MOTION_DOT,MEAN_MOTION_DDOT
ELEKTRO-L 3,2019-095A,2026-06-10T11:56:31.587648,1.00272200,.0001317,0.2384,81.3236,353.8837,78.7365,0,U,44903,999,2364,0,-.79E-6,0
GONETS-M 14,2019-096A,2026-06-10T12:40:04.145664,12.42870054,.0013224,82.5228,88.7684,162.2522,197.9022,0,U,44905,999,29285,.68436E-3,.105E-5,0
GONETS-M 15,2019-096B,2026-06-10T13:22:24.888864,12.42871499,.0014604,82.5247,89.2106,186.2267,173.8634,0,U,44906,999,29282,.50797E-3,.8E-6,0
GONETS-M 16,2019-096C,2026-06-10T12:04:24.739968,12.42891780,.0009677,82.5193,88.1998,230.6869,129.3353,0,U,44907,999,29280,.32606E-3,.55E-6,0
RS-44 & BREEZE-KM R/B,2019-096E,2026-06-10T12:23:13.201728,12.79748702,.0217871,82.5217,344.1388,159.7203,201.2721,0,U,44909,999,30149,.85775E-4,.34E-6,0
JILIN-1 KUANFU 01,2020-003A,2026-06-10T11:07:03.216288,15.10688491,.0008778,97.5031,235.5497,334.3068,25.7725,0,U,45016,999,35431,.14839E-3,.2395E-4,0
XINGYUN-2 01,2020-028A,2026-06-10T12:33:21.852576,15.11781433,.0007841,97.4866,154.0560,219.3787,140.6874,0,U,45602,999,33383,.18749E-3,.3137E-4,0
XINGYUN-2 02,2020-028B,2026-06-10T13:36:12.645792,15.11509976,.0009556,97.5071,167.6747,300.2943,59.7341,0,U,45603,999,33383,.12601E-3,.2072E-4,0
HAIYANG-1D,2020-036A,2026-06-10T11:38:06.306144,14.34170680,.0003004,98.4550,103.3099,143.6042,216.5347,0,U,45721,999,31401,-.65429E-6,-.45E-6,0
M2 PATHFINDER,2020-037E,2026-06-10T06:19:43.667040,15.04648075,.0011852,97.8160,352.4179,168.8830,191.2660,0,U,45727,999,32445,.16065E-3,.2197E-4,0
GAOFEN DUOMO (GFDM),2020-042A,2026-06-10T12:00:00.799200,14.76870708,.0012476,97.7749,221.6293,93.6586,266.6051,0,U,45856,999,32002,.67918E-4,.429E-5,0
ZIYUAN 3-03 (ZY 3-03),2020-051A,2026-06-10T12:59:52.297728,15.21479686,.0003864,97.2836,229.4823,349.6367,10.4788,0,U,45939,999,32633,.20063E-3,.4445E-4,0
NEMO-HD,2020-061F,2026-06-10T12:30:55.407168,15.44460404,.0002499,97.1927,223.5419,88.1719,271.9816,0,U,46277,999,32095,.2259E-3,.10373E-3,0
NAPA-1,2020-061BA,2026-06-10T12:34:11.788320,15.67107351,.0001263,97.2470,235.4887,163.5298,196.6004,0,U,46320,999,32069,.61084E-3,.65423E-3,0
JILIN-1 GAOFEN 3E,2020-065D,2026-06-10T12:01:01.305120,15.62830884,.0012461,97.2260,213.9587,178.0126,182.1184,0,U,46457,999,31871,.61376E-3,.55643E-3,0
JILIN-1 GAOFEN 3F,2020-065E,2026-06-10T10:48:10.507968,15.60219787,.0014118,97.2215,211.2739,167.5752,192.5856,0,U,46458,999,31865,.59972E-3,.49178E-3,0
JILIN-1 GAOFEN 3G,2020-065F,2026-06-10T10:59:43.825632,15.70012114,.0009735,97.2287,217.9763,86.7652,273.4724,0,U,46459,999,31888,.67544E-3,.81817E-3,0
JILIN-1 GAOFEN 3H,2020-065G,2026-06-10T11:30:13.927968,15.66810447,.0004591,97.2226,214.3658,27.2837,332.8664,0,U,46460,999,31883,.61245E-3,.64841E-3,0
HAIYANG-2C,2020-066A,2026-06-10T12:21:07.495776,13.83373945,.0009174,65.9969,231.8969,238.3426,121.6748,0,U,46469,999,28857,-.13294E-3,-.228E-5,0
HJ-2A,2020-067A,2026-06-09T00:47:30.986592,14.76600903,.00022126,97.8822,238.5982,312.3940,47.7082,0,U,46478,999,30705,.50437409E-4,.302E-5,0
HJ-2B,2020-067B,2026-06-10T11:50:13.597152,14.76548677,.000117,97.8887,241.0400,94.8195,265.3149,0,U,46479,999,30727,.312E-4,.168E-5,0
GONETS-M 17,2020-068A,2026-06-10T12:40:28.139808,12.42872767,.0023306,82.4996,351.6465,51.3490,308.9670,0,U,46486,999,25833,-.1738E-3,-.14E-6,0
GONETS-M 18,2020-068B,2026-06-10T13:44:03.148224,12.42873013,.0020557,82.4950,350.7394,48.0479,312.2349,0,U,46487,999,25832,.19657E-3,.37E-6,0
GONETS-M 19,2020-068C,2026-06-10T13:08:47.367744,12.42891663,.0014425,82.4974,351.2038,62.9703,297.2847,0,U,46488,999,25842,-.4054E-3,-.46E-6,0
DEKART,2020-068H,2026-06-10T12:03:23.141952,15.37199084,.0007339,97.8743,170.2941,316.1957,43.8703,0,U,46493,999,31474,.32395E-3,.11724E-3,0
NORBI,2020-068J,2026-06-10T13:33:34.943328,15.48174907,.0004478,97.8631,176.9473,278.5358,81.5384,0,U,46494,999,31518,.36928E-3,.19342E-3,0
SALSAT,2020-068K,2026-06-10T06:39:18.129024,15.29700288,.0008649,97.8853,163.9217,336.5873,23.4971,0,U,46495,999,31430,.26695E-3,.7605E-4,0
